{
  "type": "FeatureCollection",
  "features": [
    {
      "type": "Feature",
      "properties": {
        "norad_id": 26766,
        "name": "INTELSAT 10 (IS-10)",
        "group": "intelsat",
        "lat": -8.288197544772094,
        "lon": -12.581663319460185,
        "alt_km": 36110.40491061709,
        "timestamp": "2025-12-09T07:41:32.870762+00:00",
        "meta_object_name": "INTELSAT 10 (IS-10)",
        "meta_object_id": "2001-019A",
        "meta_epoch": "2025-12-08T12:50:38.847840",
        "meta_mean_motion": 0.99078973,
        "meta_eccentricity": 0.0007853,
        "meta_inclination": 8.6199,
        "meta_ra_of_asc_node": 61.1985,
        "meta_arg_of_pericenter": 221.9209,
        "meta_mean_anomaly": 143.9126,
        "meta_ephemeris_type": 0,
        "meta_classification_type": "U",
        "meta_norad_cat_id": 26766,
        "meta_element_set_no": 999,
        "meta_rev_at_epoch": 4369,
        "meta_bstar": 0,
        "meta_mean_motion_dot": -2.74e-06,
        "meta_mean_motion_ddot": 0,
        "tle_line1": "1 26766U 01019A   25342.53517185 -.00000274  00000+0  00000+0 0  9991",
        "tle_line2": "2 26766   8.6199  61.1985 0007853 221.9209 143.9126  0.99078973 43690"
      },
      "geometry": {
        "type": "Point",
        "coordinates": [
          -12.581663319460185,
          -8.288197544772094
        ]
      }
    },
    {
      "type": "Feature",
      "properties": {
        "norad_id": 26900,
        "name": "INTELSAT 902 (IS-902)",
        "group": "intelsat",
        "lat": 5.285599859394998,
        "lon": 143.37689627028257,
        "alt_km": 35791.667400362014,
        "timestamp": "2025-12-09T07:41:32.870788+00:00",
        "meta_object_name": "INTELSAT 902 (IS-902)",
        "meta_object_id": "2001-039A",
        "meta_epoch": "2025-12-01T16:59:59.311968",
        "meta_mean_motion": 1.00270327,
        "meta_eccentricity": 0.00043097,
        "meta_inclination": 5.6187,
        "meta_ra_of_asc_node": 74.2002,
        "meta_arg_of_pericenter": 175.119,
        "meta_mean_anomaly": 26.3816,
        "meta_ephemeris_type": 0,
        "meta_classification_type": "U",
        "meta_norad_cat_id": 26900,
        "meta_element_set_no": 999,
        "meta_rev_at_epoch": 8871,
        "meta_bstar": 0,
        "meta_mean_motion_dot": -2.63e-06,
        "meta_mean_motion_ddot": 0,
        "tle_line1": "1 26900U 01039A   25335.70832537 -.00000263  00000+0  00000+0 0  9993",
        "tle_line2": "2 26900   5.6187  74.2002 0004309 175.1190  26.3816  1.00270327 88713"
      },
      "geometry": {
        "type": "Point",
        "coordinates": [
          143.37689627028257,
          5.285599859394998
        ]
      }
    },
    {
      "type": "Feature",
      "properties": {
        "norad_id": 27380,
        "name": "INTELSAT 904 (IS-904)",
        "group": "intelsat",
        "lat": 6.449802297240243,
        "lon": 162.14597703812225,
        "alt_km": 35789.7477603271,
        "timestamp": "2025-12-09T07:41:32.870806+00:00",
        "meta_object_name": "INTELSAT 904 (IS-904)",
        "meta_object_id": "2002-007A",
        "meta_epoch": "2025-12-08T15:09:58.269024",
        "meta_mean_motion": 1.00268358,
        "meta_eccentricity": 0.0001612,
        "meta_inclination": 6.4433,
        "meta_ra_of_asc_node": 71.4765,
        "meta_arg_of_pericenter": 211.5706,
        "meta_mean_anomaly": 350.5417,
        "meta_ephemeris_type": 0,
        "meta_classification_type": "U",
        "meta_norad_cat_id": 27380,
        "meta_element_set_no": 999,
        "meta_rev_at_epoch": 8717,
        "meta_bstar": 0,
        "meta_mean_motion_dot": -2.26e-06,
        "meta_mean_motion_ddot": 0,
        "tle_line1": "1 27380U 02007A   25342.63192441 -.00000226  00000+0  00000+0 0  9994",
        "tle_line2": "2 27380   6.4433  71.4765 0001612 211.5706 350.5417  1.00268358 87175"
      },
      "geometry": {
        "type": "Point",
        "coordinates": [
          162.14597703812225,
          6.449802297240243
        ]
      }
    },
    {
      "type": "Feature",
      "properties": {
        "norad_id": 27426,
        "name": "DIRECTV 5 (TEMPO 1)",
        "group": "intelsat",
        "lat": 0.472359858918496,
        "lon": 83.57670570743664,
        "alt_km": 35802.06223891005,
        "timestamp": "2025-12-09T07:41:32.870819+00:00",
        "meta_object_name": "DIRECTV 5 (TEMPO 1)",
        "meta_object_id": "2002-023A",
        "meta_epoch": "2025-12-08T21:38:25.309248",
        "meta_mean_motion": 1.00271923,
        "meta_eccentricity": 0.00039076,
        "meta_inclination": 4.3924,
        "meta_ra_of_asc_node": 77.6963,
        "meta_arg_of_pericenter": 199.5007,
        "meta_mean_anomaly": 15.1924,
        "meta_ephemeris_type": 0,
        "meta_classification_type": "U",
        "meta_norad_cat_id": 27426,
        "meta_element_set_no": 999,
        "meta_rev_at_epoch": 8621,
        "meta_bstar": 0,
        "meta_mean_motion_dot": -5.6e-07,
        "meta_mean_motion_ddot": 0,
        "tle_line1": "1 27426U 02023A   25342.90168182 -.00000056  00000+0  00000+0 0  9999",
        "tle_line2": "2 27426   4.3924  77.6963 0003907 199.5007  15.1924  1.00271923 86217"
      },
      "geometry": {
        "type": "Point",
        "coordinates": [
          83.57670570743664,
          0.472359858918496
        ]
      }
    },
    {
      "type": "Feature",
      "properties": {
        "norad_id": 27438,
        "name": "INTELSAT 905 (IS-905)",
        "group": "intelsat",
        "lat": -1.6657756411417786,
        "lon": 56.59657659685003,
        "alt_km": 35797.43488555041,
        "timestamp": "2025-12-09T07:41:32.870833+00:00",
        "meta_object_name": "INTELSAT 905 (IS-905)",
        "meta_object_id": "2002-027A",
        "meta_epoch": "2025-12-08T12:00:17.267040",
        "meta_mean_motion": 1.00271271,
        "meta_eccentricity": 0.00028954,
        "meta_inclination": 6.2751,
        "meta_ra_of_asc_node": 72.1034,
        "meta_arg_of_pericenter": 189.9537,
        "meta_mean_anomaly": 218.3132,
        "meta_ephemeris_type": 0,
        "meta_classification_type": "U",
        "meta_norad_cat_id": 27438,
        "meta_element_set_no": 999,
        "meta_rev_at_epoch": 4945,
        "meta_bstar": 0,
        "meta_mean_motion_dot": 9.4e-07,
        "meta_mean_motion_ddot": 0,
        "tle_line1": "1 27438U 02027A   25342.50019985  .00000094  00000+0  00000+0 0  9999",
        "tle_line2": "2 27438   6.2751  72.1034 0002895 189.9537 218.3132  1.00271271 49453"
      },
      "geometry": {
        "type": "Point",
        "coordinates": [
          56.59657659685003,
          -1.6657756411417786
        ]
      }
    },
    {
      "type": "Feature",
      "properties": {
        "norad_id": 27445,
        "name": "GALAXY 3C (G-3C)",
        "group": "intelsat",
        "lat": 1.0408971429573857,
        "lon": 98.79577112284971,
        "alt_km": 35785.46429186455,
        "timestamp": "2025-12-09T07:41:32.870852+00:00",
        "meta_object_name": "GALAXY 3C (G-3C)",
        "meta_object_id": "2002-030A",
        "meta_epoch": "2025-12-08T21:42:47.389824",
        "meta_mean_motion": 1.00270912,
        "meta_eccentricity": 0.00011486,
        "meta_inclination": 3.2547,
        "meta_ra_of_asc_node": 80.5441,
        "meta_arg_of_pericenter": 99.2738,
        "meta_mean_anomaly": 128.9213,
        "meta_ephemeris_type": 0,
        "meta_classification_type": "U",
        "meta_norad_cat_id": 27445,
        "meta_element_set_no": 999,
        "meta_rev_at_epoch": 4458,
        "meta_bstar": 0,
        "meta_mean_motion_dot": -1.51e-06,
        "meta_mean_motion_ddot": 0,
        "tle_line1": "1 27445U 02030A   25342.90471516 -.00000151  00000+0  00000+0 0  9992",
        "tle_line2": "2 27445   3.2547  80.5441 0001148  99.2738 128.9213  1.00270912 44588"
      },
      "geometry": {
        "type": "Point",
        "coordinates": [
          98.79577112284971,
          1.0408971429573857
        ]
      }
    },
    {
      "type": "Feature",
      "properties": {
        "norad_id": 27513,
        "name": "INTELSAT 906 (IS-906)",
        "group": "intelsat",
        "lat": -0.2577302952627449,
        "lon": -102.18100088133207,
        "alt_km": 35760.739091134295,
        "timestamp": "2025-12-09T07:41:32.870880+00:00",
        "meta_object_name": "INTELSAT 906 (IS-906)",
        "meta_object_id": "2002-041A",
        "meta_epoch": "2025-12-08T20:45:27.235584",
        "meta_mean_motion": 1.00270855,
        "meta_eccentricity": 0.00060972,
        "meta_inclination": 5.3189,
        "meta_ra_of_asc_node": 75.2776,
        "meta_arg_of_pericenter": 189.6707,
        "meta_mean_anomaly": 188.4156,
        "meta_ephemeris_type": 0,
        "meta_classification_type": "U",
        "meta_norad_cat_id": 27513,
        "meta_element_set_no": 999,
        "meta_rev_at_epoch": 8512,
        "meta_bstar": 0,
        "meta_mean_motion_dot": 1.4e-07,
        "meta_mean_motion_ddot": 0,
        "tle_line1": "1 27513U 02041A   25342.86489856  .00000014  00000+0  00000+0 0  9998",
        "tle_line2": "2 27513   5.3189  75.2776 0006097 189.6707 188.4156  1.00270855 85127"
      },
      "geometry": {
        "type": "Point",
        "coordinates": [
          -102.18100088133207,
          -0.2577302952627449
        ]
      }
    }
  ]
}